ONEWEB-0195             
1 48240U 21031AG  23326.89550075 -.00000050  00000+0 -16919-3 0  9995
2 48240  87.8956 116.2621 0001598 113.6739 246.4558 13.14503956125015
ONEWEB-0201             
1 48241U 21031AH  23326.89091750  .00000074  00000+0  16490-3 0  9994
2 48241  87.8949 116.2968 0001539  98.8225 261.3080 13.15000199125244
ONEWEB-0207             
1 48242U 21031AJ  23326.86712846  .00000154  00000+0  37720-3 0  9996
2 48242  87.8945 116.2704 0001721  95.8780 264.2546 13.15003390125150
ONEWEB-0208             
1 48243U 21031AK  23326.84557558 -.00000111  00000+0 -33331-3 0  9991
2 48243  87.8945 116.2900 0001530 106.3496 253.7802 13.14498026125161
ONEWEB-0200             
1 48244U 21031AL  23326.88520066  .00000270  00000+0  69413-3 0  9994
2 48244  87.8955 116.2763 0001558 104.9534 255.1768 13.14500336125094
ONEWEB-0217             
1 48245U 21031AM  23326.82494114 -.00000185  00000+0 -53423-3 0  9994
2 48245  87.8955 116.2728 0001418 112.2032 247.9248 13.14502888125036
ONEWEB-0211             
1 48767U 21045A   23326.84056083 -.00000021  00000+0 -91033-4 0  9998
2 48767  87.8990  85.7839 0001574 102.9453 257.1853 13.15547345121177
ONEWEB-0223             
1 48768U 21045B   23326.86274523  .00000180  00000+0  44424-3 0  9997
2 48768  87.8989  85.7831 0001259 115.4267 244.6994 13.15547470121165
