<?xml version="1.0" encoding="UTF-8"?>
<ndm xmlns:xsi="http://www.w3.org/2001/XMLSchema-instance" xsi:noNamespaceSchemaLocation="https://sanaregistry.org/r/ndmxml_unqualified/ndmxml-2.0.0-master-2.0.xsd">
<omm id="CCSDS_OMM_VERS" version="2.0">
<header><CREATION_DATE/><ORIGINATOR/></header><body><segment><metadata><OBJECT_NAME>ONEWEB-0195</OBJECT_NAME><OBJECT_ID>2021-031AG</OBJECT_ID><CENTER_NAME>EARTH</CENTER_NAME><REF_FRAME>TEME</REF_FRAME><TIME_SYSTEM>UTC</TIME_SYSTEM><MEAN_ELEMENT_THEORY>SGP4</MEAN_ELEMENT_THEORY></metadata><data><meanElements><EPOCH>2023-11-22T21:29:31.264800</EPOCH><MEAN_MOTION>13.14503956</MEAN_MOTION><ECCENTRICITY>.0001598</ECCENTRICITY><INCLINATION>87.8956</INCLINATION><RA_OF_ASC_NODE>116.2621</RA_OF_ASC_NODE><ARG_OF_PERICENTER>113.6739</ARG_OF_PERICENTER><MEAN_ANOMALY>246.4558</MEAN_ANOMALY></meanElements><tleParameters><EPHEMERIS_TYPE>0</EPHEMERIS_TYPE><CLASSIFICATION_TYPE>U</CLASSIFICATION_TYPE><NORAD_CAT_ID>48240</NORAD_CAT_ID><ELEMENT_SET_NO>999</ELEMENT_SET_NO><REV_AT_EPOCH>12501</REV_AT_EPOCH><BSTAR>-.16919E-3</BSTAR><MEAN_MOTION_DOT>-.5E-6</MEAN_MOTION_DOT><MEAN_MOTION_DDOT>0</MEAN_MOTION_DDOT></tleParameters></data></segment></body></omm>
<omm id="CCSDS_OMM_VERS" version="2.0">
<header><CREATION_DATE/><ORIGINATOR/></header><body><segment><metadata><OBJECT_NAME>ONEWEB-0201</OBJECT_NAME><OBJECT_ID>2021-031AH</OBJECT_ID><CENTER_NAME>EARTH</CENTER_NAME><REF_FRAME>TEME</REF_FRAME><TIME_SYSTEM>UTC</TIME_SYSTEM><MEAN_ELEMENT_THEORY>SGP4</MEAN_ELEMENT_THEORY></metadata><data><meanElements><EPOCH>2023-11-22T21:22:55.272000</EPOCH><MEAN_MOTION>13.15000199</MEAN_MOTION><ECCENTRICITY>.0001539</ECCENTRICITY><INCLINATION>87.8949</INCLINATION><RA_OF_ASC_NODE>116.2968</RA_OF_ASC_NODE><ARG_OF_PERICENTER>98.8225</ARG_OF_PERICENTER><MEAN_ANOMALY>261.3080</MEAN_ANOMALY></meanElements><tleParameters><EPHEMERIS_TYPE>0</EPHEMERIS_TYPE><CLASSIFICATION_TYPE>U</CLASSIFICATION_TYPE><NORAD_CAT_ID>48241</NORAD_CAT_ID><ELEMENT_SET_NO>999</ELEMENT_SET_NO><REV_AT_EPOCH>12524</REV_AT_EPOCH><BSTAR>.1649E-3</BSTAR><MEAN_MOTION_DOT>.74E-6</MEAN_MOTION_DOT><MEAN_MOTION_DDOT>0</MEAN_MOTION_DDOT></tleParameters></data></segment></body></omm>
<omm id="CCSDS_OMM_VERS" version="2.0">
<header><CREATION_DATE/><ORIGINATOR/></header><body><segment><metadata><OBJECT_NAME>ONEWEB-0207</OBJECT_NAME><OBJECT_ID>2021-031AJ</OBJECT_ID><CENTER_NAME>EARTH</CENTER_NAME><REF_FRAME>TEME</REF_FRAME><TIME_SYSTEM>UTC</TIME_SYSTEM><MEAN_ELEMENT_THEORY>SGP4</MEAN_ELEMENT_THEORY></metadata><data><meanElements><EPOCH>2023-11-22T20:48:39.898944</EPOCH><MEAN_MOTION>13.15003390</MEAN_MOTION><ECCENTRICITY>.0001721</ECCENTRICITY><INCLINATION>87.8945</INCLINATION><RA_OF_ASC_NODE>116.2704</RA_OF_ASC_NODE><ARG_OF_PERICENTER>95.8780</ARG_OF_PERICENTER><MEAN_ANOMALY>264.2546</MEAN_ANOMALY></meanElements><tleParameters><EPHEMERIS_TYPE>0</EPHEMERIS_TYPE><CLASSIFICATION_TYPE>U</CLASSIFICATION_TYPE><NORAD_CAT_ID>48242</NORAD_CAT_ID><ELEMENT_SET_NO>999</ELEMENT_SET_NO><REV_AT_EPOCH>12515</REV_AT_EPOCH><BSTAR>.3772E-3</BSTAR><MEAN_MOTION_DOT>.154E-5</MEAN_MOTION_DOT><MEAN_MOTION_DDOT>0</MEAN_MOTION_DDOT></tleParameters></data></segment></body></omm>
<omm id="CCSDS_OMM_VERS" version="2.0">
<header><CREATION_DATE/><ORIGINATOR/></header><body><segment><metadata><OBJECT_NAME>ONEWEB-0208</OBJECT_NAME><OBJECT_ID>2021-031AK</OBJECT_ID><CENTER_NAME>EARTH</CENTER_NAME><REF_FRAME>TEME</REF_FRAME><TIME_SYSTEM>UTC</TIME_SYSTEM><MEAN_ELEMENT_THEORY>SGP4</MEAN_ELEMENT_THEORY></metadata><data><meanElements><EPOCH>2023-11-22T20:17:37.730112</EPOCH><MEAN_MOTION>13.14498026</MEAN_MOTION><ECCENTRICITY>.000153</ECCENTRICITY><INCLINATION>87.8945</INCLINATION><RA_OF_ASC_NODE>116.2900</RA_OF_ASC_NODE><ARG_OF_PERICENTER>106.3496</ARG_OF_PERICENTER><MEAN_ANOMALY>253.7802</MEAN_ANOMALY></meanElements><tleParameters><EPHEMERIS_TYPE>0</EPHEMERIS_TYPE><CLASSIFICATION_TYPE>U</CLASSIFICATION_TYPE><NORAD_CAT_ID>48243</NORAD_CAT_ID><ELEMENT_SET_NO>999</ELEMENT_SET_NO><REV_AT_EPOCH>12516</REV_AT_EPOCH><BSTAR>-.33331E-3</BSTAR><MEAN_MOTION_DOT>-.111E-5</MEAN_MOTION_DOT><MEAN_MOTION_DDOT>0</MEAN_MOTION_DDOT></tleParameters></data></segment></body></omm>
<omm id="CCSDS_OMM_VERS" version="2.0">
<header><CREATION_DATE/><ORIGINATOR/></header><body><segment><metadata><OBJECT_NAME>ONEWEB-0200</OBJECT_NAME><OBJECT_ID>2021-031AL</OBJECT_ID><CENTER_NAME>EARTH</CENTER_NAME><REF_FRAME>TEME</REF_FRAME><TIME_SYSTEM>UTC</TIME_SYSTEM><MEAN_ELEMENT_THEORY>SGP4</MEAN_ELEMENT_THEORY></metadata><data><meanElements><EPOCH>2023-11-22T21:14:41.337024</EPOCH><MEAN_MOTION>13.14500336</MEAN_MOTION><ECCENTRICITY>.0001558</ECCENTRICITY><INCLINATION>87.8955</INCLINATION><RA_OF_ASC_NODE>116.2763</RA_OF_ASC_NODE><ARG_OF_PERICENTER>104.9534</ARG_OF_PERICENTER><MEAN_ANOMALY>255.1768</MEAN_ANOMALY></meanElements><tleParameters><EPHEMERIS_TYPE>0</EPHEMERIS_TYPE><CLASSIFICATION_TYPE>U</CLASSIFICATION_TYPE><NORAD_CAT_ID>48244</NORAD_CAT_ID><ELEMENT_SET_NO>999</ELEMENT_SET_NO><REV_AT_EPOCH>12509</REV_AT_EPOCH><BSTAR>.69413E-3</BSTAR><MEAN_MOTION_DOT>.27E-5</MEAN_MOTION_DOT><MEAN_MOTION_DDOT>0</MEAN_MOTION_DDOT></tleParameters></data></segment></body></omm>
<omm id="CCSDS_OMM_VERS" version="2.0">
<header><CREATION_DATE/><ORIGINATOR/></header><body><segment><metadata><OBJECT_NAME>ONEWEB-0217</OBJECT_NAME><OBJECT_ID>2021-031AM</OBJECT_ID><CENTER_NAME>EARTH</CENTER_NAME><REF_FRAME>TEME</REF_FRAME><TIME_SYSTEM>UTC</TIME_SYSTEM><MEAN_ELEMENT_THEORY>SGP4</MEAN_ELEMENT_THEORY></metadata><data><meanElements><EPOCH>2023-11-22T19:47:54.914496</EPOCH><MEAN_MOTION>13.14502888</MEAN_MOTION><ECCENTRICITY>.0001418</ECCENTRICITY><INCLINATION>87.8955</INCLINATION><RA_OF_ASC_NODE>116.2728</RA_OF_ASC_NODE><ARG_OF_PERICENTER>112.2032</ARG_OF_PERICENTER><MEAN_ANOMALY>247.9248</MEAN_ANOMALY></meanElements><tleParameters><EPHEMERIS_TYPE>0</EPHEMERIS_TYPE><CLASSIFICATION_TYPE>U</CLASSIFICATION_TYPE><NORAD_CAT_ID>48245</NORAD_CAT_ID><ELEMENT_SET_NO>999</ELEMENT_SET_NO><REV_AT_EPOCH>12503</REV_AT_EPOCH><BSTAR>-.53423E-3</BSTAR><MEAN_MOTION_DOT>-.185E-5</MEAN_MOTION_DOT><MEAN_MOTION_DDOT>0</MEAN_MOTION_DDOT></tleParameters></data></segment></body></omm>
<omm id="CCSDS_OMM_VERS" version="2.0">
<header><CREATION_DATE/><ORIGINATOR/></header><body><segment><metadata><OBJECT_NAME>ONEWEB-0211</OBJECT_NAME><OBJECT_ID>2021-045A</OBJECT_ID><CENTER_NAME>EARTH</CENTER_NAME><REF_FRAME>TEME</REF_FRAME><TIME_SYSTEM>UTC</TIME_SYSTEM><MEAN_ELEMENT_THEORY>SGP4</MEAN_ELEMENT_THEORY></metadata><data><meanElements><EPOCH>2023-11-22T20:10:24.455712</EPOCH><MEAN_MOTION>13.15547345</MEAN_MOTION><ECCENTRICITY>.0001574</ECCENTRICITY><INCLINATION>87.8990</INCLINATION><RA_OF_ASC_NODE>85.7839</RA_OF_ASC_NODE><ARG_OF_PERICENTER>102.9453</ARG_OF_PERICENTER><MEAN_ANOMALY>257.1853</MEAN_ANOMALY></meanElements><tleParameters><EPHEMERIS_TYPE>0</EPHEMERIS_TYPE><CLASSIFICATION_TYPE>U</CLASSIFICATION_TYPE><NORAD_CAT_ID>48767</NORAD_CAT_ID><ELEMENT_SET_NO>999</ELEMENT_SET_NO><REV_AT_EPOCH>12117</REV_AT_EPOCH><BSTAR>-.91033E-4</BSTAR><MEAN_MOTION_DOT>-.21E-6</MEAN_MOTION_DOT><MEAN_MOTION_DDOT>0</MEAN_MOTION_DDOT></tleParameters></data></segment></body></omm>
<omm id="CCSDS_OMM_VERS" version="2.0">
<header><CREATION_DATE/><ORIGINATOR/></header><body><segment><metadata><OBJECT_NAME>ONEWEB-0223</OBJECT_NAME><OBJECT_ID>2021-045B</OBJECT_ID><CENTER_NAME>EARTH</CENTER_NAME><REF_FRAME>TEME</REF_FRAME><TIME_SYSTEM>UTC</TIME_SYSTEM><MEAN_ELEMENT_THEORY>SGP4</MEAN_ELEMENT_THEORY></metadata><data><meanElements><EPOCH>2023-11-22T20:42:21.187872</EPOCH><MEAN_MOTION>13.15547470</MEAN_MOTION><ECCENTRICITY>.0001259</ECCENTRICITY><INCLINATION>87.8989</INCLINATION><RA_OF_ASC_NODE>85.7831</RA_OF_ASC_NODE><ARG_OF_PERICENTER>115.4267</ARG_OF_PERICENTER><MEAN_ANOMALY>244.6994</MEAN_ANOMALY></meanElements><tleParameters><EPHEMERIS_TYPE>0</EPHEMERIS_TYPE><CLASSIFICATION_TYPE>U</CLASSIFICATION_TYPE><NORAD_CAT_ID>48768</NORAD_CAT_ID><ELEMENT_SET_NO>999</ELEMENT_SET_NO><REV_AT_EPOCH>12116</REV_AT_EPOCH><BSTAR>.44424E-3</BSTAR><MEAN_MOTION_DOT>.18E-5</MEAN_MOTION_DOT><MEAN_MOTION_DDOT>0</MEAN_MOTION_DDOT></tleParameters></data></segment></body></omm>

</ndm>
